JY1SAT (JO-97)          
1 43803U 18099AX  26068.68634132  .00017774  00000+0  60804-3 0  9996
2 43803  97.4249 131.3625 0004723 256.6795 103.3919 15.30302628398390
STARLINK-35114          
1 65502U 25198L   26068.83037722  .00016009  00000+0  55153-3 0  9994
2 65502  53.1588 270.2032 0000832  86.6230 273.4866 15.30195328 28647
